RASSVET-3 OBJECT J      
1 68368U 26061J   26090.65698166  .00117868  36680-5  40633-3 0  9998
2 68368  82.2968  99.7106 0026602  44.7263 315.6146 15.88838410  1263
RASSVET-3 OBJECT K      
1 68369U 26061K   26090.65700494  .00065118  32340-6  22598-3 0  9997
2 68369  82.2971  99.7109 0026776  44.5811 315.7607 15.88648903  1269
RASSVET-3 OBJECT L      
1 68370U 26061L   26090.65677140  .00065557  34380-6  22715-3 0  9994
2 68370  82.2970  99.7104 0026563  44.4425 315.8970 15.88690838  1267
RASSVET-3 OBJECT M      
1 68371U 26061M   26090.65663523  .00066259  37632-6  22899-3 0  9991
2 68371  82.2970  99.7103 0026505  44.4421 315.8970 15.88746118  1262
RASSVET-3 OBJECT N      
1 68372U 26061N   26090.65647177  .00065502  34232-6  22640-3 0  9996
2 68372  82.2970  99.7100 0026313  44.3305 316.0066 15.88751202  1266
RASSVET-3 OBJECT Q      
1 68374U 26061Q   26090.65615486  .00065252  33249-6  22471-3 0  9997
2 68374  82.2970  99.7096 0026060  44.1575 316.1770 15.88835235  1260
RASSVET-3 OBJECT R      
1 68375U 26061R   26090.65551310  .00115755  35198-5  39091-3 0  9997
2 68375  82.2966  99.7084 0025462  44.5811 315.7502 15.89296702  1264
SUPERVIEW NEO-2 OBJECT A
1 68377U 26062A   26090.85353063  .00004278  00000+0  19831-3 0  9992
2 68377  97.4363  99.2554 0006268 246.0309 114.0270 15.20592413   901
SUPERVIEW NEO-2 OBJECT B
1 68378U 26062B   26090.72162117  .00004270  00000+0  19791-3 0  9994
2 68378  97.4347  99.1253 0008952 250.4427 109.5842 15.20585060   882
CZ-2D R/B               
1 68379U 26062C   26090.87799089  .00013621  00000+0  43609-3 0  9990
2 68379  97.4980  99.2178 0053197  41.0679 319.4548 15.31110698   919
SHIYAN-33               
1 68405U 26064A   26090.68523436  .00007511  00000+0  32007-3 0  9993
2 68405  97.4664 166.6121 0013375 213.1651 146.8748 15.23164341   695
LPNTSAT-001 (IOD-1)     
1 68408U 26065A   26090.64284138  .00003946  00000+0  19555-3 0  9997
2 68408  97.4133 332.7616 0015363 275.1265  84.8216 15.18232295   499
